{
  "norad_id": 63686,
  "name": "STARLINK-33880",
  "history": [
    {
      "epoch": "2026-03-28T19:43:18.708384",
      "apogee_km": 483.98516713522804,
      "perigee_km": 481.943852214069,
      "latitude_deg": 37.10219632193572,
      "longitude_deg": -92.51254623988643,
      "semi_major_axis_km": 6861.101509674648,
      "eccentricity": 0.00014876,
      "inclination_deg": 43.0001,
      "raan_deg": 283.0652,
      "arg_perigee_deg": 265.9151,
      "mean_anomaly_deg": 94.1531,
      "mean_motion_rev_day": 15.27608249
    }
  ]
}