{"fetched_at":"2026-03-29T16:36:15Z","count":15609,"tles":[{"name":"STARLINK-33880","line1":"1 63686U 25085Y   26087.82174431  .00029525  00000+0  10772-2 0  9993","line2":"2 63686  43.0001 283.0652 0001487 265.9151  94.1531 15.27608249 51906","category":"Starlink"}]}